[{"OBJECT_NAME":"LEMUR-2-STAR-FOX","OBJECT_ID":"2025-009CR","EPOCH":"2026-03-09T19:30:12.149568","MEAN_MOTION":15.00891969,"ECCENTRICITY":0.00025005,"INCLINATION":97.7038,"RA_OF_ASC_NODE":151.2547,"ARG_OF_PERICENTER":152.191,"MEAN_ANOMALY":207.9448,"EPHEMERIS_TYPE":0,"CLASSIFICATION_TYPE":"U","NORAD_CAT_ID":62696,"ELEMENT_SET_NO":999,"REV_AT_EPOCH":6264,"BSTAR":0.000772765,"MEAN_MOTION_DOT":9.785e-5,"MEAN_MOTION_DDOT":0},{"OBJECT_NAME":"STARLINK-36055","OBJECT_ID":"2025-280AB","EPOCH":"2026-03-09T21:27:22.920192","MEAN_MOTION":14.98334393,"ECCENTRICITY":0.00023297,"INCLINATION":70.0024,"RA_OF_ASC_NODE":334.0534,"ARG_OF_PERICENTER":240.6927,"MEAN_ANOMALY":119.4,"EPHEMERIS_TYPE":0,"CLASSIFICATION_TYPE":"U","NORAD_CAT_ID":66846,"ELEMENT_SET_NO":999,"REV_AT_EPOCH":1611,"BSTAR":0.00054216839,"MEAN_MOTION_DOT":6.383e-5,"MEAN_MOTION_DDOT":0}]
